0 TITAN 3C TRANSTAGE DEB
1 27722U 65108BC  13279.14076468  .00000007  00000-0  00000+0 0  1604
2 27722 026.7863 256.8590 6672126 232.2347 046.4425 02.54333632106094
0 TITAN 3C TRANSTAGE DEB
1 27722U 65108BC  13282.61846514 -.00000018  00000-0  00000+0 0  1611
2 27722 026.7666 255.6043 6675180 234.3889 350.6511 02.54319827106188
0 TITAN 3C TRANSTAGE DEB
1 27722U 65108BC  13290.87228054 -.00000005  00000-0  00000+0 0  1628
2 27722 026.7455 252.7271 6672788 239.1514 347.5681 02.54309256106395
0 TITAN 3C TRANSTAGE DEB
1 27722U 65108BC  13291.65791182 -.00000013  00000-0  00000+0 0  1632
2 27722 026.7439 252.4538 6672600 239.6036 346.8509 02.54308409106410
0 TITAN 3C TRANSTAGE DEB
1 27722U 65108BC  13292.44623941 -.00000022  00000-0  00000+0 0  1648
2 27722 026.7429 252.1792 6672361 240.0546 348.5976 02.54307525106431
